{"type":"FeatureCollection","features":[{"type":"Feature","geometry":{"type":"Point","coordinates":[120.973,31.385]},"properties":{"id":"tinglin","name":"亭林园","en":"Tinglin Garden","type":"heritage","town":"玉山","story":"从城市园林出发，认识昆山的历史与昆曲文化。","verified":"昆山市政府景区名录","source":"https://www.ks.gov.cn/kss/lywh/common_tt.shtml"}},{"type":"Feature","geometry":{"type":"Point","coordinates":[120.986,31.275]},"properties":{"id":"qiandeng","name":"千灯古镇","en":"Qiandeng Ancient Town","type":"heritage","town":"千灯","story":"在水乡街巷中观察古镇的生活尺度。","verified":"昆山市政府景区名录","source":"https://www.ks.gov.cn/kss/lywh/common_tt.shtml"}},{"type":"Feature","geometry":{"type":"Point","coordinates":[120.901,31.183]},"properties":{"id":"jinxi","name":"锦溪古镇","en":"Jinxi Ancient Town","type":"heritage","town":"锦溪","story":"小桥、水巷与民间博物馆，是团队后续田野调查的重点。","verified":"昆山市政府景区名录","source":"https://www.ks.gov.cn/kss/lywh/common_tt.shtml"}},{"type":"Feature","geometry":{"type":"Point","coordinates":[120.845,31.112]},"properties":{"id":"zhouzhuang","name":"周庄古镇","en":"Zhouzhuang Ancient Town","type":"heritage","town":"周庄","story":"保存江南水乡建筑与桥梁的古镇。","verified":"昆山市政府景区名录","source":"https://www.ks.gov.cn/kss/lywh/common_tt.shtml"}},{"type":"Feature","geometry":{"type":"Point","coordinates":[120.946,31.368]},"properties":{"id":"kunqu","name":"昆曲文化体验（示意点）","en":"Kunqu culture · sample","type":"culture","town":"玉山","story":"文化主题示例；具体场馆和开放信息待核实。","verified":"演示占位，非已核实场馆","source":""}},{"type":"Feature","geometry":{"type":"Point","coordinates":[120.956,31.363]},"properties":{"id":"noodles","name":"奥灶面体验（示意点）","en":"Aozao noodles · sample","type":"food","town":"玉山","story":"代表性地方饮食主题；坐标不代表经核实的商家。","verified":"演示占位，非已核实商家","source":""}},{"type":"Feature","geometry":{"type":"Point","coordinates":[120.914,31.194]},"properties":{"id":"jinxi_food","name":"锦溪饮食体验（示意点）","en":"Jinxi food · sample","type":"food","town":"锦溪","story":"为后续实地采集预留的饮食主题点。","verified":"演示占位，待田野调查","source":""}}]}
